{"type":"FeatureCollection","features":[{"type":"Feature","geometry":{"type":"LineString","coordinates":[[100.5701469,13.766211],[100.5722969,13.7640196],[100.5725592,13.7636991],[100.5728001,13.7634085],[100.5730125,13.7631219],[100.5730448,13.7629626],[100.573145,13.7628032],[100.5732501,13.7623772],[100.573292,13.7619769],[100.5733128,13.7613998],[100.5734155,13.7596117],[100.5734443,13.7590925],[100.5734491,13.7584034],[100.5734974,13.7580152],[100.573581,13.757719],[100.5736492,13.7575044],[100.5737671,13.757191],[100.57393,13.7569097],[100.5741007,13.7566898],[100.5742508,13.7564904],[100.5744987,13.7562508],[100.5747772,13.7560473],[100.5749924,13.7559281],[100.5754896,13.7557176],[100.5759189,13.7556158],[100.5762857,13.755556],[100.5767635,13.7555012],[100.5781094,13.7554205],[100.5802888,13.7552898],[100.5845938,13.7547297],[100.5916423,13.7525886],[100.5922848,13.7523607],[100.6001342,13.7495759],[100.6026083,13.7486073],[100.6037962,13.7482037],[100.6044686,13.7479655],[100.6049835,13.7478066],[100.6054852,13.74779],[100.6058465,13.7479549],[100.6062577,13.7483473],[100.6068536,13.7489453],[100.6080925,13.7500667],[100.6089578,13.7509384],[100.6097768,13.7517868],[100.6106726,13.7527147],[100.6119557,13.75393],[100.6143021,13.7562901],[100.6158977,13.7578461],[100.617018,13.7586666],[100.6178317,13.7590956],[100.6179418,13.7591461],[100.6183429,13.7593299],[100.6187601,13.7594849],[100.6193976,13.759736],[100.6198964,13.7598754],[100.6210151,13.760008],[100.6239768,13.7603365],[100.62669,13.7606423],[100.6325978,13.7613081],[100.6352571,13.7616311],[100.638116,13.761946],[100.6381497,13.7619497],[100.6411061,13.7623041],[100.644063,13.7626318],[100.6460876,13.7628212],[100.6476329,13.7630007],[100.6482981,13.7630835],[100.6489394,13.7632046],[100.6495772,13.7633906],[100.6499899,13.7635292],[100.6508345,13.7639007],[100.6532413,13.7651022],[100.6548896,13.7659805],[100.6560004,13.7666237],[100.6571478,13.7673371],[100.6585332,13.7682222],[100.6588264,13.7684095],[100.6607238,13.7695123],[100.6614746,13.7699964],[100.6622234,13.7704563],[100.6648952,13.7721714],[100.6657985,13.7727608],[100.6661994,13.7729845],[100.6671525,13.7734993],[100.6677377,13.7738237],[100.669365,13.7747256],[100.6713425,13.7758233]]},"properties":{"category":"future_line","name":"MRT Orange Line (E 2028 · W 2030)","color":"#F68B1F","opening":"E 2028 · W 2030"}},{"type":"Feature","geometry":{"type":"LineString","coordinates":[[100.6713425,13.7758233],[100.6730109,13.7767064]]},"properties":{"category":"future_line","name":"MRT Orange Line (E 2028 · W 2030)","color":"#F68B1F","opening":"E 2028 · W 2030"}},{"type":"Feature","geometry":{"type":"LineString","coordinates":[[100.6730109,13.7767064],[100.6742208,13.7773803],[100.6752108,13.7779435],[100.6758686,13.7783111],[100.6765139,13.7786716],[100.6774654,13.7791851],[100.6799879,13.7805713],[100.6811135,13.7812009],[100.6819585,13.7816679],[100.68292,13.7822196],[100.6872017,13.7845622],[100.6907407,13.7865059],[100.6913955,13.7868689],[100.6924884,13.7874746],[100.6932795,13.7879189],[100.6934522,13.7880152],[100.693622,13.7881108],[100.6946722,13.7886867],[100.6955584,13.7891812],[100.6958976,13.7893621],[100.6962141,13.7895235],[100.6965735,13.7897204],[100.6971695,13.7900519],[100.6995243,13.791322],[100.7001751,13.7916801],[100.7008259,13.7920382],[100.7052859,13.7944711],[100.7061435,13.7949172],[100.7085101,13.7961089],[100.7104161,13.7970629],[100.7110924,13.7973908],[100.7117368,13.7977032],[100.713549,13.7986353],[100.715373,13.7995475],[100.7163803,13.8000465],[100.7174135,13.8005687],[100.7179158,13.8008134],[100.7191102,13.8014072],[100.7217756,13.8027219],[100.723472,13.803567],[100.724117,13.8038883],[100.724394,13.8040241],[100.7245288,13.8040903],[100.7246214,13.8041381],[100.7247586,13.8042156],[100.7248426,13.8042765],[100.7249229,13.8043323],[100.725007,13.8043985],[100.7251163,13.8044892],[100.7252385,13.8045977],[100.7253278,13.8046895],[100.7255,13.8048937],[100.725704,13.8051369],[100.726022,13.8055168],[100.7266391,13.8062506],[100.7267628,13.8063843],[100.7268193,13.8064485],[100.7268996,13.8065361],[100.7269692,13.8066123],[100.7270532,13.8066921],[100.7271367,13.8067629],[100.7272417,13.8068423],[100.7273375,13.8069134],[100.7274478,13.8069826],[100.7275649,13.8070499],[100.7276208,13.8070812]]},"properties":{"category":"future_line","name":"MRT Orange Line (E 2028 · W 2030)","color":"#F68B1F","opening":"E 2028 · W 2030"}},{"type":"Feature","geometry":{"type":"LineString","coordinates":[[100.5450001,13.814392],[100.5452125,13.8154101],[100.5452766,13.8157103],[100.5453515,13.815947],[100.5454471,13.8161594]]},"properties":{"category":"future_line","name":"Rail under construction","color":"#8a8fa3","opening":""}},{"type":"Feature","geometry":{"type":"LineString","coordinates":[[100.5412336,13.8014555],[100.5414742,13.8019448],[100.54181,13.8027722],[100.5422956,13.8039688],[100.5430146,13.8057402],[100.5431195,13.8059987]]},"properties":{"category":"future_line","name":"HSR 3 airports (2032+ (pending))","color":"#0E7490","opening":"2032+ (pending)"}},{"type":"Feature","geometry":{"type":"LineString","coordinates":[[100.541115,13.8015006],[100.5411163,13.8015036],[100.5413277,13.8020009],[100.5421491,13.8040248],[100.5428681,13.8057963],[100.5429729,13.8060545]]},"properties":{"category":"future_line","name":"HSR 3 airports (2032+ (pending))","color":"#0E7490","opening":"2032+ (pending)"}},{"type":"Feature","geometry":{"type":"LineString","coordinates":[[100.541076,13.8015155],[100.5412933,13.802014],[100.5421147,13.804038],[100.5428337,13.8058095],[100.5429385,13.8060676]]},"properties":{"category":"future_line","name":"Rail under construction","color":"#8a8fa3","opening":""}},{"type":"Feature","geometry":{"type":"LineString","coordinates":[[100.5409424,13.8015663],[100.5411468,13.8020701],[100.5419682,13.8040941],[100.5426872,13.8058655],[100.5427919,13.8061235]]},"properties":{"category":"future_line","name":"Rail under construction","color":"#8a8fa3","opening":""}},{"type":"Feature","geometry":{"type":"LineString","coordinates":[[100.5409079,13.8015795],[100.5411124,13.8020833],[100.5419338,13.8041072],[100.5426528,13.8058787],[100.5427575,13.8061366]]},"properties":{"category":"future_line","name":"Rail under construction","color":"#8a8fa3","opening":""}},{"type":"Feature","geometry":{"type":"LineString","coordinates":[[100.5407642,13.8016342],[100.5409659,13.8021393],[100.5417873,13.8041633],[100.5425063,13.8059348],[100.5426109,13.8061924]]},"properties":{"category":"future_line","name":"Rail under construction","color":"#8a8fa3","opening":""}},{"type":"Feature","geometry":{"type":"LineString","coordinates":[[100.5407247,13.8016492],[100.5409315,13.8021525],[100.5417529,13.8041765],[100.5424719,13.8059479],[100.5425765,13.8062055]]},"properties":{"category":"future_line","name":"Rail under construction","color":"#8a8fa3","opening":""}},{"type":"Feature","geometry":{"type":"LineString","coordinates":[[100.5405803,13.8017042],[100.540785,13.8022086],[100.5416065,13.8042325],[100.5423254,13.806004],[100.5424299,13.8062613]]},"properties":{"category":"future_line","name":"Rail under construction","color":"#8a8fa3","opening":""}},{"type":"Feature","geometry":{"type":"LineString","coordinates":[[100.5405389,13.80172],[100.5405662,13.8017846],[100.5407506,13.8022217],[100.541572,13.8042457],[100.542291,13.8060172],[100.5423954,13.8062744]]},"properties":{"category":"future_line","name":"HSR 3 airports (2032+ (pending))","color":"#0E7490","opening":"2032+ (pending)"}},{"type":"Feature","geometry":{"type":"LineString","coordinates":[[100.5403993,13.8017731],[100.5406041,13.8022778],[100.5414256,13.8043018],[100.5421445,13.8060733],[100.5422488,13.8063303]]},"properties":{"category":"future_line","name":"HSR 3 airports (2032+ (pending))","color":"#0E7490","opening":"2032+ (pending)"}},{"type":"Feature","geometry":{"type":"LineString","coordinates":[[100.5403649,13.8017862],[100.5405697,13.802291],[100.5413911,13.804315],[100.5421101,13.8060864],[100.5422144,13.8063434]]},"properties":{"category":"future_line","name":"HSR 3 airports (2032+ (pending))","color":"#0E7490","opening":"2032+ (pending)"}},{"type":"Feature","geometry":{"type":"LineString","coordinates":[[100.5402183,13.801842],[100.5404232,13.8023471],[100.5412447,13.804371],[100.5419636,13.8061425],[100.5420902,13.8063907]]},"properties":{"category":"future_line","name":"HSR 3 airports (2032+ (pending))","color":"#0E7490","opening":"2032+ (pending)"}},{"type":"Feature","geometry":{"type":"LineString","coordinates":[[100.5447295,13.8138155],[100.5449281,13.81474],[100.545082,13.8154262],[100.5451925,13.815816],[100.5453676,13.8161919]]},"properties":{"category":"future_line","name":"Rail under construction","color":"#8a8fa3","opening":""}},{"type":"Feature","geometry":{"type":"LineString","coordinates":[[100.5434513,13.8080333],[100.5438146,13.8089158],[100.5439885,13.8093995],[100.5442022,13.809942],[100.5442853,13.8102038],[100.5443524,13.8104591],[100.5444677,13.8110204],[100.5447395,13.8123825],[100.5449518,13.8134492],[100.5451397,13.8143615]]},"properties":{"category":"future_line","name":"Rail under construction","color":"#8a8fa3","opening":""}},{"type":"Feature","geometry":{"type":"LineString","coordinates":[[100.5428477,13.807129],[100.5430595,13.8076711],[100.5432916,13.8082573],[100.5434926,13.8087619],[100.5440226,13.8100105],[100.5441754,13.8105307],[100.5443229,13.8110634],[100.5450001,13.814392]]},"properties":{"category":"future_line","name":"Rail under construction","color":"#8a8fa3","opening":""}},{"type":"Feature","geometry":{"type":"LineString","coordinates":[[100.54382,13.8103575],[100.5440439,13.8108771],[100.5443189,13.8119099],[100.5447295,13.8138155]]},"properties":{"category":"future_line","name":"Rail under construction","color":"#8a8fa3","opening":""}},{"type":"Feature","geometry":{"type":"LineString","coordinates":[[100.5423582,13.8065989],[100.5426558,13.8073439],[100.5431306,13.8085954],[100.5433372,13.8091144],[100.5436416,13.8098652],[100.54382,13.8103575],[100.5439822,13.8109045]]},"properties":{"category":"future_line","name":"Rail under construction","color":"#8a8fa3","opening":""}},{"type":"Feature","geometry":{"type":"LineString","coordinates":[[100.5433833,13.8082145],[100.5436912,13.808977],[100.5437811,13.809214],[100.5439876,13.8097232],[100.5442865,13.8104895]]},"properties":{"category":"future_line","name":"Rail under construction","color":"#8a8fa3","opening":""}},{"type":"Feature","geometry":{"type":"LineString","coordinates":[[100.5427575,13.8061366],[100.5431494,13.8071316],[100.5434069,13.8079078],[100.5435021,13.8081683],[100.5435947,13.8084287],[100.5437489,13.8089366],[100.5438454,13.8091958],[100.5440587,13.809705],[100.5442639,13.8102233],[100.5444168,13.8107378],[100.5445334,13.8109891],[100.54474,13.811527],[100.544925,13.8120766],[100.5450739,13.8125975],[100.5452254,13.8133945],[100.5455205,13.8150003],[100.5456734,13.8155459],[100.5459309,13.8162961],[100.5461052,13.8168092],[100.5462822,13.8173301],[100.5464244,13.8178432],[100.5466899,13.819178]]},"properties":{"category":"future_line","name":"Rail under construction","color":"#8a8fa3","opening":""}},{"type":"Feature","geometry":{"type":"LineString","coordinates":[[100.5429385,13.8060676],[100.5432051,13.8068294],[100.5433425,13.8073647],[100.5434471,13.8078961]]},"properties":{"category":"future_line","name":"Rail under construction","color":"#8a8fa3","opening":""}},{"type":"Feature","geometry":{"type":"LineString","coordinates":[[100.5427919,13.8061235],[100.5430173,13.8066373],[100.5431963,13.8071225],[100.5434471,13.8078961],[100.5435021,13.8081683]]},"properties":{"category":"future_line","name":"Rail under construction","color":"#8a8fa3","opening":""}},{"type":"Feature","geometry":{"type":"LineString","coordinates":[[100.5426109,13.8061924],[100.5433346,13.8079331],[100.5434396,13.8081845],[100.5437489,13.8089366]]},"properties":{"category":"future_line","name":"Rail under construction","color":"#8a8fa3","opening":""}},{"type":"Feature","geometry":{"type":"LineString","coordinates":[[100.5424299,13.8062613],[100.5426478,13.80675],[100.542853,13.8072045],[100.5433833,13.8082145]]},"properties":{"category":"future_line","name":"Rail under construction","color":"#8a8fa3","opening":""}},{"type":"Feature","geometry":{"type":"LineString","coordinates":[[100.5423954,13.8062744],[100.5425741,13.8067826],[100.5426908,13.8072654]]},"properties":{"category":"future_line","name":"HSR 3 airports (2032+ (pending))","color":"#0E7490","opening":"2032+ (pending)"}},{"type":"Feature","geometry":{"type":"LineString","coordinates":[[100.5422488,13.8063303],[100.5423743,13.8065651],[100.5426908,13.8072654]]},"properties":{"category":"future_line","name":"HSR 3 airports (2032+ (pending))","color":"#0E7490","opening":"2032+ (pending)"}},{"type":"Feature","geometry":{"type":"LineString","coordinates":[[100.5445994,13.8143378],[100.5445215,13.8135373],[100.5443685,13.8127213],[100.5441338,13.8114189],[100.5439606,13.8106119],[100.5437254,13.8098299],[100.5433346,13.8088127],[100.5426908,13.8072654]]},"properties":{"category":"future_line","name":"HSR 3 airports (2032+ (pending))","color":"#0E7490","opening":"2032+ (pending)"}},{"type":"Feature","geometry":{"type":"LineString","coordinates":[[100.5426273,13.8072951],[100.5431838,13.8085594],[100.5436767,13.8098446],[100.5439109,13.8106315],[100.5440837,13.8114353],[100.5443183,13.8127297],[100.544471,13.813544],[100.5445487,13.8143426]]},"properties":{"category":"future_line","name":"HSR 3 airports (2032+ (pending))","color":"#0E7490","opening":"2032+ (pending)"}},{"type":"Feature","geometry":{"type":"LineString","coordinates":[[100.5422144,13.8063434],[100.5423125,13.8065898],[100.5425144,13.8070635],[100.5426273,13.8072951]]},"properties":{"category":"future_line","name":"HSR 3 airports (2032+ (pending))","color":"#0E7490","opening":"2032+ (pending)"}},{"type":"Feature","geometry":{"type":"LineString","coordinates":[[100.5420902,13.8063907],[100.5422305,13.8066152],[100.5425144,13.8070635]]},"properties":{"category":"future_line","name":"HSR 3 airports (2032+ (pending))","color":"#0E7490","opening":"2032+ (pending)"}},{"type":"Feature","geometry":{"type":"LineString","coordinates":[[100.5433346,13.8088127],[100.5436081,13.8093052],[100.5440131,13.8100059],[100.5442865,13.8104895]]},"properties":{"category":"future_line","name":"Rail under construction","color":"#8a8fa3","opening":""}},{"type":"Feature","geometry":{"type":"LineString","coordinates":[[100.5466899,13.819178],[100.5468871,13.8202342],[100.5471379,13.8210182],[100.5474892,13.8217657],[100.5482966,13.8234078]]},"properties":{"category":"future_line","name":"Rail under construction","color":"#8a8fa3","opening":""}},{"type":"Feature","geometry":{"type":"LineString","coordinates":[[100.5722969,13.7640196],[100.5732817,13.7628624],[100.5734507,13.7627113],[100.573629,13.762589],[100.5738128,13.762535],[100.5740141,13.7625305],[100.5742469,13.7625751],[100.5767293,13.7633951]]},"properties":{"category":"future_line","name":"Rail under construction","color":"#8a8fa3","opening":""}},{"type":"Feature","geometry":{"type":"LineString","coordinates":[[100.5773251,13.7635437],[100.5772321,13.7635061],[100.5771423,13.7634695],[100.5769279,13.7633805],[100.5768126,13.7633352],[100.5767074,13.7632957],[100.5765872,13.7632517],[100.5764542,13.7632056],[100.5746078,13.7625757],[100.5744524,13.7625123],[100.5743072,13.7624363],[100.5741742,13.7623503],[100.5740543,13.7622566],[100.5739516,13.7621727],[100.5738421,13.7620616],[100.5737368,13.7619378],[100.5736721,13.7618264],[100.5735973,13.761701],[100.5735458,13.7615901],[100.5734927,13.7614569],[100.5734545,13.7613213],[100.5734283,13.7612042],[100.5734123,13.7610597],[100.5733989,13.7609002],[100.5734056,13.7607304],[100.5734787,13.7597722]]},"properties":{"category":"future_line","name":"Rail under construction","color":"#8a8fa3","opening":""}},{"type":"Feature","geometry":{"type":"LineString","coordinates":[[100.5276044,13.7976233],[100.5277893,13.7979681],[100.5280102,13.7983801],[100.5283455,13.7990275],[100.5285103,13.7993365],[100.5289773,13.8002221],[100.529386,13.8010003],[100.5296377,13.8014329],[100.529836,13.801767],[100.5299438,13.8019569],[100.5300103,13.8020928],[100.5302148,13.802558],[100.5303079,13.8028205],[100.5303849,13.8030897],[100.5304114,13.8032898],[100.5305026,13.8040314],[100.5305284,13.804594],[100.5305825,13.8051496]]},"properties":{"category":"future_line","name":"MRT Purple Line South ext. (2029)","color":"#76338E","opening":"2029"}},{"type":"Feature","geometry":{"type":"LineString","coordinates":[[100.5272052,13.6323191],[100.5277934,13.6329437],[100.5278911,13.6332308],[100.5278954,13.6335513],[100.5279798,13.6361037],[100.5279702,13.6361951],[100.527938,13.6363122],[100.5266141,13.6394655],[100.5258071,13.641544],[100.5257488,13.6416906],[100.5245733,13.6446472],[100.5192358,13.6579274],[100.5192328,13.657935],[100.5188573,13.6588691],[100.5181529,13.6606797],[100.5161036,13.6659652],[100.5157641,13.6666384],[100.5153379,13.6671984],[100.5148612,13.667672],[100.514301,13.6680583],[100.5139997,13.6682539],[100.5119564,13.6695459],[100.5115128,13.6698248],[100.5065979,13.6729155],[100.5052898,13.6737133],[100.5044323,13.6742568],[100.5037894,13.6746643],[100.4982967,13.6781291],[100.4972086,13.6788176],[100.4971957,13.6788258],[100.4967013,13.6791386],[100.4945597,13.6805482],[100.4925738,13.6819256],[100.4907293,13.6832117],[100.4897417,13.6839023],[100.4894031,13.6841354],[100.4890801,13.6843402],[100.4883201,13.6848499],[100.4838266,13.6880982],[100.4822267,13.6892548],[100.4817939,13.6896976],[100.4816155,13.6899391],[100.4814667,13.6901916],[100.4812899,13.6906546],[100.4812237,13.6909171],[100.4811882,13.6911593],[100.4811882,13.6916016],[100.4812524,13.6919918],[100.4813649,13.6923456],[100.4824445,13.6954662],[100.4829122,13.6968182]]},"properties":{"category":"future_line","name":"MRT Purple Line South ext. (2029)","color":"#76338E","opening":"2029"}},{"type":"Feature","geometry":{"type":"LineString","coordinates":[[100.4841112,13.7002843],[100.485111,13.70331],[100.4880271,13.7119197],[100.4918488,13.7230945],[100.4923028,13.7243548],[100.4927073,13.7255814],[100.4933224,13.7273162],[100.4943479,13.7303164],[100.4951014,13.732513],[100.4951079,13.7325325],[100.4955541,13.7338709],[100.4960904,13.7354112],[100.4964015,13.7358805],[100.4966716,13.7362853],[100.4972908,13.7369689],[100.4996272,13.7398682],[100.4997726,13.740188],[100.5000138,13.7409188],[100.5001396,13.7412504],[100.5002684,13.7415604],[100.50249,13.7449135],[100.5025979,13.7451068],[100.5026686,13.7453071],[100.5031144,13.7470088],[100.5033275,13.7478416],[100.5033891,13.7480823],[100.5048179,13.7536651],[100.5051758,13.7551283],[100.5052175,13.7553792],[100.5051975,13.7555164],[100.5051414,13.7558111],[100.5049641,13.7561437],[100.5045131,13.7569326],[100.5044256,13.7570855],[100.5042082,13.7574784],[100.5039121,13.7580198],[100.5037777,13.7582692],[100.5036322,13.7585276],[100.5033449,13.7587918],[100.5022505,13.7595039],[100.4989701,13.7616364],[100.4986293,13.7618975],[100.4984635,13.7621046],[100.4984076,13.7623003],[100.4984798,13.7625544],[100.4986439,13.7628686],[100.5005413,13.7660985],[100.5005747,13.7661553],[100.5009395,13.7667763],[100.5047021,13.7707954],[100.5049912,13.7712357],[100.50541,13.7721493],[100.5055504,13.7724463],[100.5088813,13.7794951],[100.5088869,13.7795069],[100.5089509,13.7796409],[100.5100774,13.7819998],[100.5105582,13.782974],[100.5116595,13.7852492],[100.5129388,13.7870604],[100.5162866,13.7917998],[100.5194805,13.7952994],[100.5210706,13.7970418],[100.5212436,13.7971989],[100.5214692,13.7972354],[100.521676,13.7971952],[100.5243409,13.7963235],[100.5250053,13.7961338],[100.5254763,13.7960848],[100.5257412,13.7960868],[100.5260046,13.7961351],[100.5263033,13.7962294],[100.5265794,13.7963505],[100.527033,13.7967054]]},"properties":{"category":"future_line","name":"MRT Purple Line South ext. (2029)","color":"#76338E","opening":"2029"}},{"type":"Feature","geometry":{"type":"LineString","coordinates":[[100.4692943,13.7657092],[100.4709868,13.7643571],[100.4724328,13.7631869],[100.4740592,13.7618985],[100.4746057,13.7615088],[100.4752336,13.7612106],[100.4756595,13.7610427],[100.4761652,13.7608891],[100.4767814,13.7607711],[100.4786817,13.760716],[100.4808493,13.7608057],[100.4830362,13.7608675],[100.483283,13.7608564],[100.4834267,13.7608499],[100.4845001,13.7608098],[100.4874013,13.7607305],[100.4894281,13.760702],[100.4904698,13.7607046],[100.4912132,13.7606853],[100.4913083,13.760687],[100.4915455,13.7606118],[100.4917268,13.7604665],[100.4923022,13.7599025],[100.4928495,13.7592901],[100.4935115,13.7585494],[100.4941336,13.7578739],[100.494319,13.7577446],[100.4945311,13.7577136],[100.4949552,13.7576982],[100.4960435,13.7578933],[100.4964708,13.7579673],[100.4966626,13.7579647],[100.4969783,13.7579365],[100.4988642,13.7575485],[100.5000994,13.7572944],[100.5020974,13.7568779],[100.5033869,13.7566108],[100.504179,13.7564468],[100.5047411,13.7563629],[100.5064449,13.7564429],[100.5107865,13.7565431],[100.5121119,13.7565737],[100.515773,13.7566754],[100.5161507,13.7566991],[100.5183994,13.756932],[100.5201107,13.7571129],[100.5204685,13.7571205],[100.5207668,13.7571547],[100.5211165,13.7571018],[100.5303822,13.7537909],[100.531277,13.7534712],[100.5332246,13.7527931],[100.5368247,13.7515393],[100.5380205,13.7511228],[100.5382609,13.7509994],[100.538492,13.7508778],[100.5387191,13.7507972],[100.5393264,13.7505893],[100.5403529,13.750231],[100.5407474,13.750116],[100.5408383,13.7501025],[100.5409271,13.7501245],[100.5409803,13.750148],[100.5410296,13.7501999],[100.5410553,13.7503421],[100.5411571,13.7508171],[100.5414681,13.7521517],[100.5415846,13.752646],[100.5419745,13.7542356],[100.5420806,13.7549228],[100.5422986,13.7558379],[100.5423577,13.7561242],[100.5423813,13.756379],[100.542392,13.7570802],[100.5423919,13.7582244],[100.5424062,13.7608948],[100.5424056,13.7615681],[100.5424055,13.7616976],[100.5424307,13.7618406],[100.5424917,13.7621265],[100.5425571,13.7624518],[100.5426147,13.7625889],[100.5426667,13.7626614],[100.5427142,13.7627446],[100.5427698,13.7627768],[100.5428535,13.7628336],[100.5432809,13.7629447],[100.5474888,13.7639409],[100.5478455,13.7641962],[100.5480428,13.7643896],[100.5483905,13.7651202],[100.5507227,13.7686182],[100.5514903,13.770105],[100.5520674,13.7711419],[100.5528592,13.7725049],[100.5530975,13.7728009],[100.5533778,13.7729787],[100.5536129,13.7730378],[100.5539076,13.7730881],[100.554282,13.7731963],[100.5622629,13.7724537],[100.563895,13.7723019],[100.5641885,13.7722036],[100.5644617,13.7720071],[100.5701469,13.766211]]},"properties":{"category":"future_line","name":"MRT Orange Line (E 2028 · W 2030)","color":"#F68B1F","opening":"E 2028 · W 2030"}},{"type":"Feature","geometry":{"type":"LineString","coordinates":[[100.7276208,13.8070812],[100.7284791,13.8075484],[100.7304856,13.8086531],[100.732313,13.8096514],[100.733038,13.8100459],[100.7336985,13.8104053],[100.7349012,13.8110586],[100.7358954,13.8116064],[100.7361919,13.8117658],[100.7369235,13.8121709],[100.7376219,13.8125577],[100.739012,13.8133123],[100.7396033,13.8136332],[100.7398499,13.8137764],[100.7402533,13.813989],[100.7408605,13.8143223],[100.741993,13.8149403],[100.7431266,13.8155576],[100.7432812,13.8156473]]},"properties":{"category":"future_line","name":"MRT Orange Line (E 2028 · W 2030)","color":"#F68B1F","opening":"E 2028 · W 2030"}},{"type":"Feature","geometry":{"type":"LineString","coordinates":[[100.4829122,13.6968182],[100.4832771,13.6979467],[100.4841112,13.7002843]]},"properties":{"category":"future_line","name":"MRT Purple Line South ext. (2029)","color":"#76338E","opening":"2029"}},{"type":"Feature","geometry":{"type":"LineString","coordinates":[[100.527033,13.7967054],[100.5272197,13.7969238],[100.5276044,13.7976233]]},"properties":{"category":"future_line","name":"MRT Purple Line South ext. (2029)","color":"#76338E","opening":"2029"}},{"type":"Feature","geometry":{"type":"LineString","coordinates":[[101.012603,14.5917081],[100.9994879,14.5847642],[100.9840093,14.5762978],[100.9828904,14.5756778],[100.9820213,14.5750973],[100.9614005,14.5545888],[100.9597136,14.5529939],[100.9580387,14.5518764],[100.9284817,14.5354641],[100.9271655,14.5345226],[100.9259996,14.5333664],[100.9251825,14.5321827],[100.9242953,14.5309425],[100.9240177,14.5305892],[100.9237522,14.5302491],[100.9234706,14.5299219],[100.923087,14.5295221],[100.9227249,14.5292157],[100.9223226,14.5289171],[100.9218585,14.5286393],[100.9213221,14.5283796],[100.9207213,14.5281434],[100.9201044,14.527959],[100.9194687,14.5278318],[100.9187901,14.5277487],[100.83341,14.5195256],[100.8321708,14.519401],[100.8312267,14.51924],[100.8301967,14.5189595],[100.8289307,14.5185649],[100.8276433,14.5180767],[100.8266455,14.5175782],[100.8255404,14.5169135],[100.7561946,14.4733126],[100.753444,14.4715991],[100.7533514,14.4715414],[100.7490063,14.4688716],[100.7289809,14.4561556],[100.7199311,14.4507532],[100.7175386,14.4492883],[100.7138747,14.4467844],[100.7078397,14.4428623],[100.6868863,14.4297293],[100.6804651,14.4256094],[100.6796282,14.4251055],[100.6786841,14.4245496],[100.6776971,14.424056],[100.6487694,14.4110009],[100.6460845,14.4097892],[100.644958,14.4092385],[100.643515,14.4085007],[100.6397323,14.4065167],[100.5932235,14.3822568],[100.5925124,14.3818632],[100.5919209,14.3814915],[100.5913451,14.3810578],[100.5907856,14.3805881],[100.5902003,14.3799902],[100.5898017,14.3794805],[100.5894236,14.378913],[100.5890983,14.3783294],[100.588848,14.3778238],[100.5885978,14.3771946],[100.5883846,14.3764976],[100.5878271,14.374104],[100.587467,14.372573],[100.5872022,14.3718088],[100.5868089,14.3709267],[100.5837782,14.364899],[100.5834258,14.3640817],[100.5831193,14.3631962],[100.5829944,14.3626221],[100.5829038,14.362054],[100.5828505,14.3615174],[100.5828292,14.3609024],[100.5828372,14.3602268],[100.5830705,14.355356],[100.583124,14.3543503],[100.583236,14.353477],[100.5833988,14.352735],[100.5845759,14.3481372],[100.5847665,14.3474452],[100.5848963,14.3468717],[100.5849667,14.3463128],[100.5849884,14.3458635],[100.5849694,14.3453468],[100.5849126,14.3448045],[100.5848261,14.3443226],[100.5829028,14.3360009],[100.5827077,14.3350661],[100.5826038,14.3341887],[100.5825958,14.3332976],[100.5826492,14.3324024],[100.5833543,14.3263998],[100.5888263,14.2798141],[100.5889456,14.2784804],[100.5890487,14.2761215],[100.5890334,14.274731],[100.5888966,14.2734834],[100.5876308,14.2623631],[100.5867715,14.2551853],[100.5859385,14.2480892],[100.5847962,14.2387019],[100.5836234,14.2290906],[100.5831428,14.2252068],[100.582792,14.2221839],[100.5822292,14.2177643],[100.5820477,14.2160279],[100.5812347,14.209329],[100.5799678,14.2019825],[100.5769601,14.1766519],[100.576837,14.1753177],[100.5767942,14.1742192],[100.5768423,14.1729913],[100.5770083,14.1715738],[100.5814125,14.1338988],[100.5815709,14.1325915],[100.5866213,14.0908951],[100.5867715,14.0897197],[100.5869537,14.0883729],[100.5911057,14.0617326],[100.5938199,14.0453674],[100.5941201,14.0437606],[100.596947,14.0301467],[100.5971942,14.0289062],[100.5973608,14.0277692],[100.5991902,14.0121961]]},"properties":{"category":"future_line","name":"HSR 3 airports (2032+ (pending))","color":"#0E7490","opening":"2032+ (pending)"}},{"type":"Feature","geometry":{"type":"LineString","coordinates":[[100.5734787,13.7597722],[100.5736376,13.7580442],[100.5736859,13.7577706],[100.5737234,13.757643]]},"properties":{"category":"future_line","name":"Rail under construction","color":"#8a8fa3","opening":""}},{"type":"Feature","geometry":{"type":"LineString","coordinates":[[100.5737234,13.757643],[100.5738414,13.7573147],[100.574048,13.7569421],[100.5742786,13.7566686],[100.574579,13.7563403],[100.5747772,13.7560473]]},"properties":{"category":"future_line","name":"Rail under construction","color":"#8a8fa3","opening":""}},{"type":"Feature","geometry":{"type":"LineString","coordinates":[[100.5991244,14.0121888],[100.5972952,14.027761],[100.5971289,14.0288956],[100.5968821,14.0301343],[100.5940551,14.0437485],[100.5937546,14.0453566],[100.5910402,14.0617227],[100.5868882,14.088364],[100.5867058,14.0897115],[100.5865556,14.0908874],[100.5815647,14.1320917],[100.5813467,14.1338914],[100.5769426,14.1715666],[100.5767763,14.1729865],[100.576728,14.1742191],[100.5767709,14.1753218],[100.5768943,14.1766585],[100.5784187,14.1898297],[100.579867,14.2019806],[100.5811446,14.2093466],[100.5819509,14.2158586],[100.5821721,14.2177813],[100.5827314,14.2222025],[100.5830764,14.2252163],[100.5835616,14.2291107],[100.5847205,14.2386987],[100.5858432,14.2481134],[100.586667,14.2551256],[100.5875595,14.2624323],[100.5888213,14.2734907],[100.5889483,14.2745197],[100.5889368,14.276706],[100.588891,14.2777001],[100.5888569,14.2785812],[100.5887604,14.2798081],[100.5832885,14.3263931],[100.5825832,14.3323969],[100.5825296,14.3332961],[100.5825376,14.3341926],[100.5826423,14.3350762],[100.5828381,14.3360143],[100.5847612,14.3443351],[100.584847,14.3448133],[100.5849034,14.3453512],[100.5849221,14.3458631],[100.5849007,14.3463075],[100.5848309,14.3468609],[100.5847022,14.34743],[100.5845118,14.3481212],[100.5833343,14.3527206],[100.5831706,14.3534664],[100.583058,14.3543447],[100.5830044,14.3553529],[100.582771,14.3602249],[100.582763,14.3609031],[100.5827844,14.3615215],[100.5828381,14.362062],[100.5829293,14.3626336],[100.5830553,14.3632131],[100.5833638,14.3641043],[100.5837178,14.3649254],[100.5867487,14.3709535],[100.5871403,14.3718317],[100.5874032,14.3725904],[100.5877626,14.3741182],[100.5883205,14.3765138],[100.5885351,14.3772153],[100.5887872,14.3778492],[100.5890393,14.3783585],[100.5893665,14.3789457],[100.5897474,14.3795173],[100.5901498,14.3800317],[100.5907398,14.3806345],[100.5913031,14.3811073],[100.5918825,14.3815438],[100.5924779,14.381918],[100.5931914,14.3823129],[100.6397009,14.4065731],[100.6434855,14.4085578],[100.6449268,14.409297],[100.6460549,14.4098485],[100.648738,14.4110594],[100.6776671,14.4241152],[100.6786508,14.424607],[100.6795926,14.4251616],[100.6804284,14.4256648],[100.6868491,14.4297843],[100.7078023,14.4429173],[100.7138361,14.4468387],[100.7175008,14.4493431],[100.7198951,14.4508091],[100.7289444,14.4562112],[100.7489694,14.4689269],[100.7533148,14.4715969],[100.7561577,14.4733679],[100.825504,14.516969],[100.8266119,14.5176355],[100.8276152,14.5181368],[100.8289079,14.5186269],[100.8301771,14.5190226],[100.8312116,14.5193042],[100.8321614,14.5194662],[100.8334031,14.5195911],[100.9187825,14.5278141],[100.9194575,14.5278968],[100.9200874,14.5280228],[100.9206984,14.5282054],[100.9212941,14.5284396],[100.9218254,14.5286968],[100.9222839,14.5289713],[100.9226818,14.5292666],[100.9230396,14.5295694],[100.9234195,14.5299654],[100.9236989,14.53029],[100.9239635,14.530629],[100.9242402,14.5309812],[100.9251263,14.5322197],[100.9259466,14.533408],[100.9271207,14.5345724],[100.9284445,14.5355193],[100.9580024,14.5519321],[100.9596702,14.5530449],[100.9613524,14.5546353],[100.9819768,14.5751474],[100.9828568,14.575719],[100.984005,14.576349],[100.999455,14.5848218],[101.0125704,14.5917659]]},"properties":{"category":"future_line","name":"HSR 3 airports (2032+ (pending))","color":"#0E7490","opening":"2032+ (pending)"}},{"type":"Feature","geometry":{"type":"LineString","coordinates":[[100.6713702,13.7757778],[100.6693864,13.7746755],[100.6677652,13.7737782],[100.6671753,13.7734516],[100.6662301,13.7729425],[100.6656109,13.7725689],[100.6648157,13.7720648],[100.6615481,13.769969],[100.6607499,13.7694726],[100.6600737,13.7690313],[100.6586099,13.7680999],[100.6575308,13.7673711],[100.6555533,13.7661597],[100.654899,13.7658019],[100.6526035,13.764627],[100.6515566,13.7640963],[100.6503025,13.7635243],[100.6496455,13.7632679],[100.6490132,13.763081],[100.6485541,13.7629876],[100.6478009,13.7628861],[100.6461048,13.7627204],[100.6448704,13.762539],[100.6415287,13.7621729],[100.6381381,13.7618156],[100.6377269,13.7617723],[100.6326757,13.7611913],[100.6281998,13.7606789],[100.6267056,13.7604957],[100.6238583,13.7601465],[100.6200673,13.7597424],[100.6197311,13.7596957],[100.619452,13.7596199],[100.6186295,13.7592526],[100.6179995,13.7589856],[100.617735,13.7588735],[100.6170476,13.7584916],[100.6164803,13.7581067],[100.615946,13.7577365],[100.6128933,13.7546878],[100.6099016,13.7516676],[100.6083104,13.7500613],[100.6070129,13.7487337],[100.606386,13.748114],[100.6059174,13.7477767],[100.605515,13.7476511],[100.6053384,13.7476415],[100.6051123,13.7476786],[100.6048555,13.7477259],[100.6034304,13.7482376],[100.5926799,13.7520627],[100.5922374,13.7522071],[100.5886782,13.7533688],[100.5854525,13.7543857],[100.5846734,13.7546103],[100.584503,13.7546379],[100.5833182,13.7548034],[100.5804612,13.7552041],[100.5791055,13.7552957],[100.5781052,13.7553659],[100.5768864,13.7554515],[100.5758879,13.7555186],[100.5756224,13.7555536],[100.5754087,13.7556063],[100.5750829,13.7557364],[100.574623,13.7560178],[100.5740908,13.7564504],[100.5736853,13.7572135],[100.5735839,13.7574597],[100.5734825,13.7578641],[100.5733775,13.7587152],[100.5731906,13.7621173],[100.5730699,13.7628052],[100.5729843,13.7630244],[100.5728754,13.7631756],[100.5708914,13.7652742],[100.5700646,13.7661253]]},"properties":{"category":"future_line","name":"MRT Orange Line (E 2028 · W 2030)","color":"#F68B1F","opening":"E 2028 · W 2030"}},{"type":"Feature","geometry":{"type":"LineString","coordinates":[[100.5700646,13.7661253],[100.56952,13.7667063],[100.5682477,13.7679535],[100.5666029,13.7696512],[100.5651562,13.771141],[100.5644031,13.7718763],[100.5641416,13.7720649],[100.5640187,13.7721342],[100.5638324,13.7721919],[100.5622874,13.7723275],[100.5622522,13.7723305],[100.5607607,13.7724614],[100.5586204,13.7727],[100.5565238,13.7729233],[100.5543637,13.7731158],[100.5541499,13.7730906],[100.5540923,13.7730533],[100.5537389,13.7729455],[100.5534893,13.7728667],[100.5532531,13.7727448],[100.5531579,13.7726413],[100.5522433,13.7710374],[100.5515179,13.76978],[100.5508226,13.768479],[100.5486323,13.7649648],[100.5482302,13.7642532],[100.5480689,13.764058],[100.5478996,13.7639501],[100.547569,13.7638345],[100.5469782,13.7637139],[100.5459784,13.7634144],[100.5434682,13.7627003],[100.5430549,13.7625748],[100.5429056,13.762474],[100.5428547,13.7624376],[100.5427997,13.7623803],[100.5427516,13.7623014],[100.5426979,13.7622148],[100.5426745,13.7621233],[100.5426366,13.7618456],[100.5426097,13.7616495],[100.5425643,13.7610454],[100.5425481,13.7587655],[100.542527,13.7570807],[100.542504,13.7564083],[100.5425026,13.756313],[100.5424372,13.7558779],[100.5422861,13.755296],[100.542136,13.7547074],[100.5420191,13.7542631],[100.5416273,13.7526019],[100.5415206,13.7521604],[100.5413611,13.7514905],[100.5411463,13.7505585],[100.5411123,13.7503301],[100.5410949,13.7502419],[100.5410642,13.7501818],[100.5410223,13.750132],[100.5409687,13.7500956],[100.5408915,13.7500695],[100.540837,13.7500633],[100.5407434,13.750062],[100.5406605,13.7500763],[100.5405542,13.7501165],[100.5403334,13.7501948],[100.539315,13.750553],[100.5387124,13.7507836],[100.5384831,13.7508583],[100.5382395,13.7509407],[100.5379107,13.7509894],[100.536779,13.7513896],[100.5338889,13.7524116],[100.531606,13.7532138],[100.5303364,13.753655],[100.5286158,13.754253],[100.5255987,13.7553269],[100.5238753,13.7559595],[100.5214379,13.7566509],[100.5205135,13.7569922],[100.5203747,13.7570096],[100.5199761,13.7569751],[100.5184213,13.756786],[100.5168057,13.7565895],[100.514668,13.7564853],[100.5121521,13.7564436],[100.5107935,13.7564118],[100.5092057,13.7563746],[100.5073147,13.7563407],[100.5064628,13.756325],[100.505232,13.7562039],[100.5049423,13.7562144],[100.5041705,13.7563487],[100.5033677,13.756515],[100.5021621,13.7567647],[100.4969461,13.7578271],[100.4967532,13.7578612],[100.4964575,13.7578431],[100.4959488,13.7577396],[100.4949659,13.7575585],[100.4946009,13.7575688],[100.4943106,13.7576464],[100.4940362,13.7578237],[100.4938045,13.7580423],[100.4927593,13.7592164],[100.4924747,13.7595361],[100.4916755,13.7602682],[100.4914422,13.7604975],[100.4913054,13.7605574],[100.491149,13.7605865],[100.4908709,13.7606043],[100.4905571,13.7605939],[100.4901901,13.7606016],[100.4845022,13.7608018],[100.4834261,13.7608392],[100.4832827,13.7608431],[100.4830138,13.7608505],[100.4812945,13.760788],[100.4783361,13.7606161]]},"properties":{"category":"future_line","name":"MRT Orange Line (E 2028 · W 2030)","color":"#F68B1F","opening":"E 2028 · W 2030"}},{"type":"Feature","geometry":{"type":"LineString","coordinates":[[100.4783361,13.7606161],[100.4779552,13.7606239],[100.4772283,13.7606525],[100.4767562,13.7606864],[100.4764102,13.7607177],[100.4757343,13.7608766],[100.4750879,13.7610511],[100.4745093,13.7614025],[100.4738702,13.7618926],[100.4726605,13.7627862],[100.4712863,13.7639178],[100.4691495,13.7656259]]},"properties":{"category":"future_line","name":"MRT Orange Line (E 2028 · W 2030)","color":"#F68B1F","opening":"E 2028 · W 2030"}},{"type":"Feature","geometry":{"type":"LineString","coordinates":[[100.7276198,13.8070403],[100.7273814,13.8068955],[100.7272965,13.8068315],[100.7271789,13.8067494],[100.7270804,13.8066599],[100.7269993,13.8065809],[100.7268936,13.806477],[100.7266545,13.8062029],[100.7262245,13.8056942],[100.7257163,13.8050963],[100.725361,13.804681],[100.7252555,13.8045611],[100.7251765,13.8044925],[100.7250619,13.8043891],[100.7249481,13.8043061],[100.7248671,13.8042443],[100.7247451,13.8041685],[100.7245426,13.8040562],[100.7241269,13.8038482],[100.7234897,13.8035321],[100.7230313,13.8033048],[100.7217982,13.8026931],[100.7209116,13.8022491],[100.7191518,13.8013734],[100.7180595,13.8008305],[100.7174472,13.8005263],[100.7165222,13.8000783],[100.7154088,13.7995215],[100.7143425,13.7989887],[100.7139075,13.7987675],[100.7117501,13.797683],[100.7111091,13.7973623],[100.7104218,13.7970184],[100.7085242,13.7960774],[100.7061557,13.7948837],[100.7053041,13.7944377],[100.7008326,13.7920042],[100.7001895,13.7916475],[100.6995243,13.7912785],[100.6976177,13.7902485],[100.696597,13.7896945],[100.6962576,13.789501],[100.6955993,13.7891228],[100.6949443,13.7887632],[100.6939587,13.7882131],[100.6933767,13.7878986],[100.6931301,13.7877563],[100.6925081,13.787436],[100.6914154,13.7868407],[100.6907427,13.7864742],[100.6872119,13.7845215],[100.686561,13.7841679],[100.6829252,13.782172],[100.681566,13.7814036],[100.6800032,13.7805438],[100.677476,13.7791548],[100.6765287,13.7786347],[100.6758878,13.778278],[100.6752187,13.7779057],[100.6742406,13.7773625],[100.6730286,13.7766781]]},"properties":{"category":"future_line","name":"MRT Orange Line (E 2028 · W 2030)","color":"#F68B1F","opening":"E 2028 · W 2030"}},{"type":"Feature","geometry":{"type":"LineString","coordinates":[[100.6730286,13.7766781],[100.6713702,13.7757778]]},"properties":{"category":"future_line","name":"MRT Orange Line (E 2028 · W 2030)","color":"#F68B1F","opening":"E 2028 · W 2030"}},{"type":"Feature","geometry":{"type":"LineString","coordinates":[[100.6957378,13.7892307],[100.6955374,13.7891231],[100.6952186,13.7889447],[100.6944321,13.788516],[100.6936522,13.7880889],[100.6932664,13.7878763],[100.6931547,13.7878122]]},"properties":{"category":"future_line","name":"MRT Orange Line (E 2028 · W 2030)","color":"#F68B1F","opening":"E 2028 · W 2030"}},{"type":"Feature","geometry":{"type":"LineString","coordinates":[[100.6952186,13.7889447],[100.6955993,13.7891228]]},"properties":{"category":"future_line","name":"MRT Orange Line (E 2028 · W 2030)","color":"#F68B1F","opening":"E 2028 · W 2030"}},{"type":"Feature","geometry":{"type":"LineString","coordinates":[[100.6955584,13.7891812],[100.6952186,13.7889447]]},"properties":{"category":"future_line","name":"MRT Orange Line (E 2028 · W 2030)","color":"#F68B1F","opening":"E 2028 · W 2030"}},{"type":"Feature","geometry":{"type":"LineString","coordinates":[[100.6934522,13.7880152],[100.6936522,13.7880889]]},"properties":{"category":"future_line","name":"MRT Orange Line (E 2028 · W 2030)","color":"#F68B1F","opening":"E 2028 · W 2030"}},{"type":"Feature","geometry":{"type":"LineString","coordinates":[[100.6936522,13.7880889],[100.6933767,13.7878986]]},"properties":{"category":"future_line","name":"MRT Orange Line (E 2028 · W 2030)","color":"#F68B1F","opening":"E 2028 · W 2030"}},{"type":"Feature","geometry":{"type":"LineString","coordinates":[[100.7433076,13.8156196],[100.7431475,13.8155292],[100.7420125,13.8149081],[100.7405143,13.8140964],[100.7401631,13.813894],[100.7396964,13.8136427],[100.7390309,13.8132808],[100.7380233,13.8127329],[100.7370613,13.8122046],[100.7358962,13.811565],[100.7350104,13.8110839],[100.7337275,13.8103889],[100.7330535,13.8100195],[100.7323269,13.8096212],[100.730497,13.808619],[100.7284887,13.8075187],[100.7279926,13.8072433],[100.7276198,13.8070403]]},"properties":{"category":"future_line","name":"MRT Orange Line (E 2028 · W 2030)","color":"#F68B1F","opening":"E 2028 · W 2030"}},{"type":"Feature","geometry":{"type":"LineString","coordinates":[[100.7376219,13.8125577],[100.7380233,13.8127329]]},"properties":{"category":"future_line","name":"MRT Orange Line (E 2028 · W 2030)","color":"#F68B1F","opening":"E 2028 · W 2030"}},{"type":"Feature","geometry":{"type":"LineString","coordinates":[[100.7398499,13.8137764],[100.7401631,13.813894]]},"properties":{"category":"future_line","name":"MRT Orange Line (E 2028 · W 2030)","color":"#F68B1F","opening":"E 2028 · W 2030"}},{"type":"Feature","geometry":{"type":"LineString","coordinates":[[100.7405143,13.8140964],[100.7408605,13.8143223]]},"properties":{"category":"future_line","name":"MRT Orange Line (E 2028 · W 2030)","color":"#F68B1F","opening":"E 2028 · W 2030"}},{"type":"Feature","geometry":{"type":"LineString","coordinates":[[100.5276455,13.7975834],[100.5272607,13.7968839],[100.5270741,13.7966655]]},"properties":{"category":"future_line","name":"MRT Purple Line South ext. (2029)","color":"#76338E","opening":"2029"}},{"type":"Feature","geometry":{"type":"LineString","coordinates":[[100.5307396,13.8051322],[100.5306736,13.8046],[100.5305827,13.8040297],[100.5304964,13.8034232],[100.5304481,13.8031684],[100.5303973,13.8029581],[100.5303494,13.802815],[100.5302554,13.8025463],[100.5300532,13.8020924],[100.5299905,13.8019424],[100.5297927,13.8016038],[100.529145,13.8004586],[100.5276455,13.7975834]]},"properties":{"category":"future_line","name":"MRT Purple Line South ext. (2029)","color":"#76338E","opening":"2029"}},{"type":"Feature","geometry":{"type":"LineString","coordinates":[[100.5270741,13.7966655],[100.5266186,13.7963099],[100.526374,13.7961703],[100.526262,13.7961117],[100.525956,13.7960438],[100.5258169,13.7960157],[100.5255466,13.796003],[100.5251147,13.7960455],[100.5249604,13.7960694],[100.5240305,13.7963806],[100.5221822,13.7969717],[100.5217965,13.7971048],[100.5215042,13.7971683],[100.5214304,13.7971654],[100.5213468,13.7971448],[100.5211181,13.7969217],[100.5201947,13.7958535],[100.5195896,13.7951862],[100.5180201,13.7934512],[100.5165872,13.7919419],[100.5154577,13.7904828],[100.5146794,13.7893712],[100.5133603,13.7874789],[100.5130189,13.7870007],[100.5124688,13.7862301],[100.5119209,13.7854426],[100.5117736,13.7852458],[100.5116841,13.7850772],[100.5106529,13.7829105],[100.5090496,13.7795936],[100.5089453,13.7793779],[100.5075697,13.7764024],[100.5062457,13.7736223],[100.5056458,13.7724088],[100.5055593,13.7722337],[100.5051164,13.7711991],[100.5050243,13.7710021],[100.5047831,13.7706975],[100.5035885,13.7693897],[100.5028026,13.7685698],[100.501311,13.7670013],[100.5010167,13.7666969],[100.5006451,13.766054],[100.5005745,13.7659318],[100.4995979,13.7642695],[100.4989553,13.7632226],[100.4985266,13.7624101],[100.4985156,13.7623363],[100.4985534,13.7621461],[100.4986154,13.7620556],[100.4990321,13.7617348],[100.4996946,13.7612967],[100.5018634,13.7598797],[100.5024084,13.7595263],[100.5032475,13.7589784],[100.5034061,13.7588696],[100.503515,13.7587782],[100.5036538,13.7586502],[100.5038087,13.758475],[100.5039029,13.7583207],[100.5042733,13.7576594],[100.5046459,13.7570098],[100.5048266,13.7566948],[100.50503,13.7563247],[100.5051993,13.7560621],[100.505257,13.7559696],[100.5053027,13.7558615],[100.5053417,13.7555294],[100.505343,13.7553166],[100.5052652,13.7549715],[100.5047797,13.7530169],[100.5043201,13.7511276],[100.5034585,13.7477942],[100.5033456,13.7473575],[100.5029292,13.7456987],[100.5028084,13.7452384],[100.502752,13.7450747],[100.5026853,13.7449493],[100.5021795,13.7442439],[100.500506,13.741673],[100.5003373,13.7414027],[100.5002464,13.741188],[100.5000987,13.740732],[100.4998936,13.7401681],[100.4998233,13.7400199],[100.4995994,13.739632],[100.4980121,13.7376447],[100.4969743,13.7363371],[100.4966345,13.7358344],[100.4965016,13.7355913],[100.4958283,13.7337503],[100.495363,13.7324603],[100.4945594,13.7302321],[100.4927852,13.7250976],[100.4925104,13.7242968],[100.4920539,13.7229667],[100.4904221,13.7182825],[100.488963,13.7140146],[100.4882211,13.711867],[100.48633,13.706361],[100.4852235,13.7031911],[100.4841526,13.7002754]]},"properties":{"category":"future_line","name":"MRT Purple Line South ext. (2029)","color":"#76338E","opening":"2029"}},{"type":"Feature","geometry":{"type":"LineString","coordinates":[[100.4841526,13.7002754],[100.4829485,13.6968042]]},"properties":{"category":"future_line","name":"MRT Purple Line South ext. (2029)","color":"#76338E","opening":"2029"}},{"type":"Feature","geometry":{"type":"LineString","coordinates":[[100.4829485,13.6968042],[100.4826427,13.69585],[100.4825005,13.6954503],[100.4814273,13.6923884],[100.4813315,13.6920993],[100.4812968,13.6919659],[100.4812616,13.6917816],[100.48124,13.6915954],[100.4812224,13.691305],[100.4812224,13.6911439],[100.4812577,13.6909475],[100.4813202,13.6906801],[100.4814955,13.6902207],[100.4816504,13.6899656],[100.4818303,13.6897212],[100.4822633,13.6892825],[100.4838612,13.6881414],[100.4849832,13.6873402],[100.4870039,13.6858713],[100.4883764,13.6848606],[100.4926888,13.6819074],[100.494644,13.6805375],[100.4972166,13.6788648],[100.4996924,13.6773187],[100.5025831,13.6754833],[100.5044606,13.6743044],[100.505155,13.6738684],[100.5074196,13.6724646],[100.5095076,13.6711534],[100.5115465,13.6698638],[100.5119816,13.6695886],[100.5140305,13.6683034],[100.5144244,13.6680383],[100.5148106,13.6677791],[100.5152339,13.6673888],[100.5155627,13.6670123],[100.5158068,13.6666604],[100.516179,13.6659599],[100.5170861,13.6636646],[100.5182217,13.6606832],[100.5192877,13.657957],[100.5195717,13.6572308],[100.5205049,13.6548941],[100.5209703,13.6537576],[100.5214895,13.6524614],[100.5227582,13.6493032],[100.5233741,13.6477827],[100.5239718,13.6462773],[100.5246204,13.6446666],[100.5257972,13.6417104],[100.5258577,13.6415583],[100.5266874,13.6394625],[100.5276115,13.6372281],[100.5280265,13.6361898],[100.5280551,13.6360799],[100.5280558,13.6356425],[100.5280113,13.6337425],[100.5280157,13.6334781],[100.5280028,13.6333409],[100.5279352,13.6330913],[100.5278449,13.6329327],[100.52724,13.6322247]]},"properties":{"category":"future_line","name":"MRT Purple Line South ext. (2029)","color":"#76338E","opening":"2029"}},{"type":"Feature","geometry":{"type":"Polygon","coordinates":[[[100.535,13.795],[100.552,13.795],[100.552,13.813],[100.535,13.813],[100.535,13.795]]]},"properties":{"category":"dev_zone","name":"Bang Sue — Krung Thep Aphiwat (SRT land, ph.2 2026-2029)","color":"#3ad97f","status":"acted","note":"Central terminal + 18 SRT plots under development. Watch: current condo oversupply in the area."}},{"type":"Feature","geometry":{"type":"Polygon","coordinates":[[[100.558,13.7485],[100.5735,13.7485],[100.5735,13.758],[100.558,13.758],[100.558,13.7485]]]},"properties":{"category":"dev_zone","name":"Makkasan — HSR 3 airports TOD (pending, ≥2032)","color":"#e8b84c","status":"pending","note":"140-rai depot slated for HSR terminal + mixed-use. Contract amendment stalled (caretaker gov.) — a long option, not a commitment."}},{"type":"Feature","geometry":{"type":"Polygon","coordinates":[[[100.565,13.712],[100.5935,13.712],[100.5935,13.6955],[100.5765,13.692],[100.565,13.7],[100.565,13.712]]]},"properties":{"category":"dev_zone","name":"Khlong Toei Port redevelopment (pending, →2035)","color":"#e8b84c","status":"pending","note":"2,353 rai, ~100bn THB mixed-use waterfront; zoning upgrade to Por 5 rides on the 2027 city plan."}},{"type":"Feature","geometry":{"type":"Polygon","coordinates":[[[100.528,13.7215],[100.553,13.7215],[100.553,13.7325],[100.528,13.7325],[100.528,13.7215]]]},"properties":{"category":"dev_zone","name":"Rama IV corridor — One Bangkok / Dusit Central Park (delivered)","color":"#8f9bb3","status":"delivered","note":"Luxury cluster delivered/near-complete: mostly priced in. Rent-side play rather than capital-gain play."}}]}